DEWASAT-2               
1 56180U 23054C   24341.87607290  .00095411  00000+0  74466-3 0  9996
2 56180  97.3453 245.5226 0002443 110.1406 250.0120 15.71378353 93022
KILICSAT                
1 56181U 23054D   24341.87085063  .00172024  00000+0  14006-2 0  9994
2 56181  97.3323 242.4784 0002263  97.2087 262.9433 15.70125921 92864
SSS-2B                  
1 56184U 23054G   24341.80288386  .00486335  90982-4  16802-2 0  9995
2 56184  97.3357 244.7837 0005420 112.9043 247.2802 15.89485631 92978
BRO-9                   
1 56185U 23054H   24341.93379540  .00026839  00000+0  71299-3 0  9991
2 56185  97.3414 236.2369 0003614 284.7308  75.3537 15.38234352 92469
ION SCV-010             
1 56192U 23054Q   24341.94124250  .00009250  00000+0  44346-3 0  9997
2 56192  97.4449 227.8405 0017379 359.8610   0.2616 15.18994484 91399
GHOST-1                 
1 56195U 23054T   24341.95570790  .00024421  00000+0  61431-3 0  9996
2 56195  97.3426 236.9781 0004763 266.1662  93.9039 15.39925240 92503
GHOST-2                 
1 56197U 23054V   24341.45445818  .00036845  00000+0  80579-3 0  9992
2 56197  97.3419 237.7433 0004504 265.2175  94.8559 15.44057235 92516
TOMORROW-R1             
1 56199U 23054X   24341.81235188  .00076651  00000+0  11427-2 0  9995
2 56199  97.3447 240.7975 0003309 243.3166 116.7749 15.54826601 92734
FACSAT-2                
1 56205U 23054AD  24341.84565093  .00038524  00000+0  74084-3 0  9993
2 56205  97.3468 240.3220 0005821 244.1533 115.9117 15.47808803 92693
CONNECTA T2.1           
1 56210U 23054AJ  24341.87598561  .00036731  00000+0  73554-3 0  9997
2 56210  97.3390 239.0608 0005332 239.5387 120.5336 15.46645804 92650
DISCO-1                 
1 56222U 23054AW  24341.66490850  .00196802  00000+0  14766-2 0  9994
2 56222  97.3330 242.6224 0002553 133.4653 226.6823 15.72016554 92855
REVELA                  
1 56224U 23054AY  24341.69267474  .00372043  00000+0  15720-2 0  9997
2 56224  97.3318 244.8489 0005660 114.0440 246.1423 15.84449011 92990
TELEOS-2                
1 56310U 23057C   24322.75504147  .00015809  00000+0  12856-2 0  9994
2 56310   9.9894  81.2828 0000733 323.3625  36.6538 14.96704825 86317
SNIPE 4                 
1 56744U 23072B   24341.86993068  .00019771  00000+0  90881-3 0  9996
2 56744  97.5421 167.7532 0010507 145.4157 214.7764 15.20352235 84840
SNIPE 2                 
1 56745U 23072C   24341.91349808  .00020562  00000+0  93353-3 0  9997
2 56745  97.5594 168.5628 0006849 159.7149 200.4359 15.20799108 84868
2023-072G               
1 56749U 23072G   24341.89263866  .00020387  00000+0  86649-3 0  9992
2 56749  97.5226 167.5331 0006973 166.6975 193.4446 15.23053690 84923
OTTER PUP               
1 56933U 23084B   24341.78703278  .00030204  00000+0  93799-3 0  9997
2 56933  97.5516 102.9036 0006017 102.5333 257.6582 15.33301788 82513
GEISAT PRECURSOR        
1 56934U 23084C   24341.88944509  .00011342  00000+0  47164-3 0  9990
2 56934  97.5585 100.5195 0008396 145.1840 214.9947 15.23922294 82340
EIVE                    
1 56937U 23084F   24341.85422683  .00082377  00000+0  16260-2 0  9992
2 56937  97.5468 104.9963 0003039 149.0204 211.1225 15.46866548 82656
LAYAN-23                
1 56939U 23084H   24341.84841362  .00087051  00000+0  15627-2 0  9992
2 56939  97.5438 105.9322 0002958 136.9397 223.2085 15.49583658 82718
AFRL-XVI                
1 56942U 23084L   24341.77715968  .00029886  00000+0  70511-3 0  9996
2 56942  97.5533 105.3881 0004080 135.5964 224.5611 15.41834218 82650
BLACKJACK ACES-3        
1 56950U 23084U   24341.73945116  .00018074  00000+0  71845-3 0  9999
2 56950  97.5583 102.0859 0009115 120.5552 239.6586 15.25321098 82437
BLACKJACK ACES-4        
1 56952U 23084W   24341.77390342  .00037260  00000+0  10950-2 0  9997
2 56952  97.5561 103.1968 0008488 123.3250 236.8806 15.34987851 82514
BLACKJACK ACES-2        
1 56955U 23084Z   24341.31434089  .00014296  00000+0  49769-3 0  9992
2 56955  97.5459 101.4729 0024039 311.4898  48.4278 15.29518141 82377
BLACKJACK ACES-1        
1 56956U 23084AA  24341.30514727  .00026839  00000+0  10614-2 0  9992
2 56956  97.5546 101.6032 0009441 129.2136 230.9941 15.25406334 32099
ION SCV-011             
1 56957U 23084AB  24341.93098093  .00011187  00000+0  52535-3 0  9994
2 56957  98.0858 111.7251 0009030 160.6206 199.5372 15.19782211 80891
GHOST-3                 
1 56958U 23084AC  24341.62077767  .00019097  00000+0  72435-3 0  9995
2 56958  97.5587 101.1757 0010563 128.4676 231.7512 15.26857236 82362
TOMORROW-R2             
1 56962U 23084AG  24341.75310103  .00029224  00000+0  95505-3 0  9994
2 56962  97.5558 102.5988 0010093 122.9465 237.2748 15.31641617 82473
AFR-1                   
1 56964U 23084AJ  24341.89972629  .00008870  00000+0  40434-3 0  9993
2 56964  97.5618  99.8604 0013304 131.0611 229.1776 15.20810829 82299
DROID.001               
1 56965U 23084AK  24341.78611408  .00030933  00000+0  96592-3 0  9998
2 56965  97.5541 102.8970 0008903 118.9662 241.2474 15.33099975 82504
MUSAT1                  
1 56967U 23084AM  24341.78267924  .02148792  44259-2  24801-2 0  9995
2 56967  97.5281 112.0520 0009089 308.6804  51.3665 16.09997829 83112
AII-DELTA               
1 56987U 23084BH  24341.89812936  .00225897  00000+0  21803-2 0  9990
2 56987  97.5313 109.0877 0001398  52.7875 307.3512 15.65756853 82947
SPEI SATELLES           
1 56991U 23084BT  24341.63266851  .00089971  00000+0  16102-2 0  9993
2 56991  97.5451 106.2367 0003997  90.7684 269.4024 15.49655803 82722
URESAT-1                
1 56992U 23084BU  24341.63065868  .00152869  00000+0  20252-2 0  9997
2 56992  97.5370 105.8177 0003898 143.4372 216.7150 15.57753680 82701
MRC-100                 
1 56993U 23084BV  24341.79291459  .00334264  00000+0  23514-2 0  9997
2 56993  97.5324 107.7802 0001346 256.3802 103.7312 15.73149982 82858
METEOR-M2 3             
1 57166U 23091A   24341.90478493  .00000090  00000+0  58385-4 0  9999
2 57166  98.6906  34.8328 0003876   5.3375 354.7844 14.23958223 75208
STRATOSAT-TK 1 (RS52S)  
1 57167U 23091B   24341.89521289  .00035975  00000+0  14957-2 0  9995
2 57167  97.5858  35.4684 0011429 239.4691 120.5418 15.23640276 79745
UMKA 1 (RS40S)          
1 57172U 23091G   24341.89930809  .00011077  00000+0  65411-3 0  9992
2 57172  97.5879  32.4146 0014353 249.4201 110.5489 15.11600405 79543
2023-091H               
1 57173U 23091H   24341.86669291  .00014401  00000+0  79841-3 0  9990
2 57173  97.5877  32.7608 0012177 258.0368 101.9498 15.13830281 79565
2023-091J               
1 57174U 23091J   24341.90592216  .00006401  00000+0  41466-3 0  9991
2 57174  97.5889  31.2267 0013568 263.2553  96.7131 15.08408048 79463
CUBEBEL 2 (EU11S)       
1 57175U 23091K   24341.90130424  .00015292  00000+0  85009-3 0  9990
2 57175  97.5879  32.7074 0012481 261.1592  98.8226 15.13716589 79565
SITRO-AIS 5 (KATYS)     
1 57176U 23091L   24341.87527396  .00014963  00000+0  82233-3 0  9995
2 57176  97.5888  32.9653 0014564 247.9991 111.9693 15.14105089 79574
ZORKIY-2M 1             
1 57177U 23091M   24341.87870626  .00009288  00000+0  54877-3 0  9990
2 57177  97.5907  32.5609 0015027 245.2482 114.7184 15.11622639 79540
CUBESX-HSE 3 (RS42S)    
1 57178U 23091N   24341.87716988  .00015981  00000+0  86177-3 0  9996
2 57178  97.5914  33.4584 0014191 240.9322 119.0489 15.14771419 79592
MONITOR-3 (RS58S)       
1 57180U 23091Q   24341.87532130  .00014595  00000+0  80892-3 0  9992
2 57180  97.5908  33.1106 0014576 242.0370 117.9387 15.13810255 79571
MONITOR-4 (RS57S)       
1 57182U 23091S   24341.87545441  .00014372  00000+0  79654-3 0  9990
2 57182  97.5904  33.0732 0014617 242.7545 117.2197 15.13814287 79571
MONITOR-2 (RS39S)       
1 57184U 23091U   24341.87880433  .00009030  00000+0  54094-3 0  9991
2 57184  97.5913  32.8022 0011975 237.2047 122.8030 15.11164845 79554
SVYATOBOR 1 (RS60S)     
1 57187U 23091X   24341.92001412  .00012546  00000+0  69054-3 0  9990
2 57187  97.5908  33.8293 0011323 231.9688 128.0522 15.14131563 79627
HORS 1                  
1 57188U 23091Y   24341.91703966  .00012548  00000+0  69089-3 0  9993
2 57188  97.5888  33.7052 0010756 232.3064 127.7193 15.14123159 79621
VIZARD-METEO (RS38S)    
1 57189U 23091Z   24341.91791988  .00017030  00000+0  86608-3 0  9992
2 57189  97.5898  34.7001 0010178 227.3286 132.7090 15.16870385 79686
NANOZOND 1 (RS49S)      
1 57190U 23091AA  24341.87073382  .00028054  00000+0  11963-2 0  9999
2 57190  97.5865  36.1166 0008179 228.3418 131.7118 15.22866886 79785
SITRO-AIS 6 (CHIRKIN)   
1 57192U 23091AC  24341.92190072  .00014194  00000+0  78013-3 0  9993
2 57192  97.5881  33.0425 0014499 247.5974 112.3721 15.14115303 79586
SITRO-AIS 8 (ANOKHIN)   
1 57193U 23091AD  24341.89828186  .00016799  00000+0  90256-3 0  9990
2 57193  97.5881  33.2155 0014196 248.4460 111.5259 15.14890457 79591
SITRO-AIS 7 (FARTUSHNIY)
1 57194U 23091AE  24341.86830567  .00014453  00000+0  79650-3 0  9994
2 57194  97.5884  32.9513 0014295 248.3896 111.5812 15.14019697 79573
AVION KALUGA 650        
1 57195U 23091AF  24341.89763123  .00010416  00000+0  61411-3 0  9992
2 57195  97.5922  33.1701 0011352 238.0225 121.9902 15.11707765 79574
HORS 2                  
1 57196U 23091AG  24341.88089693  .00015344  00000+0  80625-3 0  9998
2 57196  97.5906  34.3019 0010475 231.9601 128.0687 15.15740057 79659
A-SEANSAT-PG1           
1 57197U 23091AH  24341.88995918  .00017908  00000+0  90817-3 0  9997
2 57197  97.5884  34.4671 0010077 234.5124 125.5169 15.16959982 79676
YARILO 3                
1 57198U 23091AJ  24341.90053424  .00070639  00000+0  20092-2 0  9995
2 57198  97.5890  39.0633 0007162 226.3855 133.6795 15.35855838 79956
SITRO-AIS 10 (BURDAEV)  
1 57199U 23091AK  24341.89913697  .00019073  00000+0  95772-3 0  9994
2 57199  97.5896  34.6943 0009850 232.6338 127.3999 15.17296129 79688
